OBJECT_NAME,OBJECT_ID,EPOCH,MEAN_MOTION,ECCENTRICITY,INCLINATION,RA_OF_ASC_NODE,ARG_OF_PERICENTER,MEAN_ANOMALY,EPHEMERIS_TYPE,CLASSIFICATION_TYPE,NORAD_CAT_ID,ELEMENT_SET_NO,REV_AT_EPOCH,BSTAR,MEAN_MOTION_DOT,MEAN_MOTION_DDOT
DUMMY SAT 3,2024-069A,2025-05-08T19:24:37.519776,0.98606425,.0049771,1.0645,85.8607,121.9568,238.5534,0,U,59479,999,382,0,-.69E-6,0
WSF-M,2024-070A,2025-05-08T23:12:00.162720,14.20638096,.0005695,98.7184,137.3779,56.7713,303.4009,0,U,59481,999,5570,.65983E-4,.98E-6,0
STARLINK-31753,2024-071A,2025-05-08T19:28:55.437600,15.40704528,.00015,43.0015,264.5516,271.5840,88.4845,0,U,59484,999,6154,.11587E-4,.181E-5,0
STARLINK-31733,2024-071C,2025-05-08T20:14:05.091072,15.40700810,.0001474,43.0058,264.7917,280.8870,79.1821,0,U,59486,999,6154,.14447E-4,.3E-5,0
STARLINK-31657,2024-071D,2025-05-08T20:26:59.190144,15.40702920,.0001229,43.0025,264.8627,272.9034,87.1681,0,U,59487,999,6155,.15546E-4,.346E-5,0
STARLINK-31754,2024-071E,2025-05-08T08:53:45.560544,15.27564636,.0000737,43.0000,271.5877,318.5048,41.5748,0,U,59488,999,6142,.12515E-3,.3182E-4,0
STARLINK-31638,2024-071F,2025-05-08T19:38:35.505600,15.40711296,.0001232,43.0041,264.6037,272.4959,87.5757,0,U,59489,999,6154,.86596E-4,.3317E-4,0
STARLINK-31670,2024-071G,2025-05-08T17:24:32.824224,15.27589722,.000147,43.0043,273.4334,296.5677,63.5024,0,U,59490,999,6140,-.78687E-4,-.2428E-4,0
STARLINK-31712,2024-071H,2025-05-08T20:34:43.622976,15.27565101,.0002504,43.0064,272.6832,300.1446,59.9158,0,U,59491,999,6146,-.51697E-4,-.1684E-4,0
STARLINK-31684,2024-071J,2025-05-08T16:50:05.841600,15.27576048,.0000125,43.0003,269.7680,274.4407,85.6430,0,U,59492,999,6147,.23021E-5,-.198E-5,0
STARLINK-31678,2024-071K,2025-05-08T17:01:11.671104,15.27576709,.0000584,43.0005,269.8264,256.5374,103.5413,0,U,59493,999,6029,.37519E-4,.771E-5,0
STARLINK-31744,2024-071L,2025-05-08T20:03:57.429504,15.27590077,.0000754,43.0017,269.0584,294.0800,65.9973,0,U,59494,999,6145,-.11515E-3,-.343E-4,0
STARLINK-31719,2024-071M,2025-05-08T11:00:25.779744,15.40700669,.0001486,43.0056,267.0716,288.8973,71.1722,0,U,59495,999,6148,.25514E-4,.762E-5,0
STARLINK-31728,2024-071N,2025-05-07T16:23:24.319968,15.40736962,.0003352,43.0068,271.5658,266.2043,93.8431,0,U,59496,999,6136,.12278E-2,.514E-3,0
STARLINK-31720,2024-071P,2025-05-08T19:57:57.246048,15.40702197,.0001431,43.0020,264.7046,261.7864,98.2830,0,U,59497,999,6154,.46108E-5,-.111E-5,0
STARLINK-31731,2024-071Q,2025-05-08T17:04:08.090400,15.40756126,.0002061,43.0030,265.5198,268.5151,91.5469,0,U,59498,999,6153,-.26814E-3,-.11509E-3,0
STARLINK-31742,2024-071R,2025-05-08T16:54:28.613376,15.40699387,.0001875,43.0045,265.4677,264.0409,96.0234,0,U,59499,999,6148,.13553E-4,.262E-5,0
STARLINK-31512,2024-071S,2025-05-08T13:45:16.405056,15.40683504,.0001937,43.0018,228.2686,282.5385,77.5255,0,U,59500,999,6191,-.27432E-4,-.1449E-4,0
STARLINK-31458,2024-071T,2025-05-08T20:07:38.253216,15.40697502,.0001121,43.0024,264.7551,262.0663,98.0066,0,U,59501,999,6150,.42046E-5,-.128E-5,0
STARLINK-31357,2024-071U,2025-05-08T19:48:16.929216,15.40699843,.0001969,43.0024,264.6517,283.5019,76.5618,0,U,59502,999,6154,.33837E-4,.111E-4,0
STARLINK-31508,2024-071V,2025-05-08T19:41:50.384256,15.40696504,.0000892,43.0033,264.6160,293.3250,66.7513,0,U,59503,999,6150,.28057E-4,.869E-5,0
STARLINK-31535,2024-071W,2025-05-08T02:59:19.888800,15.27573344,.0003303,43.0078,273.1779,276.8971,83.1505,0,U,59504,999,6138,-.61925E-5,-.433E-5,0
STARLINK-31533,2024-071X,2025-05-08T16:28:40.517184,15.40697338,.0001622,43.0050,265.3251,254.7090,105.3587,0,U,59505,999,6148,.34807E-4,.115E-4,0
STARLINK-31524,2024-071Y,2025-05-08T16:06:51.326496,15.28389019,.000091,42.9987,255.5013,192.7309,167.3520,0,U,59506,999,6160,-.60797E-4,-.1979E-4,0
SUPERVIEW NEO-3 01,2024-072A,2025-05-09T04:33:31.467456,15.24416336,.0002997,97.4473,208.2785,104.6514,255.5056,0,U,59510,999,5920,.59698E-3,.14585E-3,0
STARLINK-31635,2024-073A,2025-05-08T14:53:18.098304,15.27582438,.0001416,43.0023,240.5139,266.8953,93.1737,0,U,59511,999,6074,.71103E-4,.1695E-4,0
STARLINK-31650,2024-073B,2025-05-08T18:53:28.206528,15.27513072,.0000139,42.9982,240.0439,298.8125,61.2713,0,U,59512,999,5954,.50712E-3,.13691E-3,0
STARLINK-31658,2024-073C,2025-05-08T22:00:01.999584,15.32816903,.0001541,43.0000,199.0689,281.4882,222.6653,0,U,59513,999,595,-.2148E-1,-.646856E-2,0
STARLINK-31669,2024-073E,2025-05-09T05:15:31.459968,15.27571017,.0000725,43.0038,237.2669,216.9358,143.1443,0,U,59515,999,6083,.41914E-4,.891E-5,0
STARLINK-31671,2024-073F,2025-05-08T19:08:14.638560,15.27581412,.000077,42.9976,240.1130,260.9124,99.1640,0,U,59516,999,5954,.15064E-3,.3886E-4,0
STARLINK-31674,2024-073G,2025-05-08T13:50:36.572352,15.27574623,.0001574,42.9996,241.0428,239.0410,121.0287,0,U,59517,999,6073,.67341E-4,.1591E-4,0
STARLINK-31679,2024-073J,2025-05-08T18:30:33.482304,15.40700636,.0000446,43.0003,233.8689,246.2131,113.8678,0,U,59519,999,6083,.99966E-4,.3875E-4,0
STARLINK-31370,2024-073K,2025-05-08T19:04:31.514016,15.27584715,.0000552,42.9975,240.0991,270.1285,89.9503,0,U,59520,999,5954,.59041E-4,.1363E-4,0
STARLINK-31404,2024-073L,2025-05-08T19:19:20.506080,15.27577652,.0000582,42.9988,240.1735,245.7060,114.3731,0,U,59521,999,5954,.61542E-4,.1432E-4,0
STARLINK-31453,2024-073M,2025-05-08T13:41:04.187040,15.27574010,.000059,42.9984,223.3914,294.4344,65.6446,0,U,59522,999,5971,.42502E-4,.908E-5,0
STARLINK-31476,2024-073N,2025-05-08T18:58:58.493856,15.27587250,.0000789,42.9991,240.0686,270.4871,89.5890,0,U,59523,999,5954,-.4985E-4,-.1634E-4,0
STARLINK-31376,2024-073P,2025-05-09T06:00:02.000160,15.28881622,.0002262,43.0011,236.9540,305.7618,281.8248,0,U,59524,999,6083,.44209E-2,.128558E-2,0
STARLINK-31538,2024-073Q,2025-05-08T18:21:59.016960,15.27550231,.0001862,42.9990,239.8729,175.8350,184.2517,0,U,59525,999,6065,.33377E-3,.8925E-4,0
STARLINK-31564,2024-073R,2025-05-08T15:02:34.105632,15.27580624,.000017,43.0017,240.5569,239.2036,120.8798,0,U,59526,999,6074,-.10891E-3,-.3257E-4,0
STARLINK-31452,2024-073S,2025-05-08T14:31:20.196768,15.27561255,.0000718,42.9991,241.2558,262.7607,97.3163,0,U,59527,999,6063,-.42117E-4,-.142E-4,0
STARLINK-31618,2024-073T,2025-05-08T13:59:40.030944,15.27650258,.0000997,43.0013,241.0903,264.0934,95.9804,0,U,59528,999,6074,.23347E-3,.6182E-4,0
STARLINK-31513,2024-073U,2025-05-08T14:28:19.434144,15.27562972,.0001116,43.0028,237.7394,282.6456,77.4270,0,U,59529,999,6077,-.25491E-4,-.963E-5,0
STARLINK-31392,2024-073V,2025-05-08T14:05:24.960480,15.27574471,.0000718,42.9959,241.1167,168.6318,191.4550,0,U,59530,999,6074,.12694E-4,.88E-6,0
STARLINK-31619,2024-073W,2025-05-08T07:28:26.453856,15.27564593,.0001275,43.0023,242.4900,205.2873,154.7916,0,U,59531,999,6059,-.31594E-4,-.1131E-4,0
STARLINK-31624,2024-073X,2025-05-08T13:25:01.516512,15.45942092,.0004767,43.0032,230.4264,26.5981,333.5122,0,U,59532,999,6082,.76028E-3,.37791E-3,0
STARLINK-31509,2024-073Y,2025-05-08T14:42:25.881984,15.27573976,.0001042,42.9992,241.3237,257.6559,102.4176,0,U,59533,999,5951,.28782E-4,.53E-5,0
STARLINK-31734,2024-074A,2025-05-08T09:31:41.106720,15.40694775,.0001534,43.0010,261.6190,276.2056,83.8626,0,U,59534,999,5939,.10953E-4,.154E-5,0
STARLINK-31738,2024-074B,2025-05-08T16:49:27.156000,15.27577274,.0001166,43.0023,262.1031,250.2272,109.8454,0,U,59535,999,6058,.12128E-3,.3076E-4,0
STARLINK-31721,2024-074C,2025-05-08T16:52:28.641792,15.27578995,.0002158,43.0070,265.6661,283.6078,76.4533,0,U,59536,999,6054,-.10013E-3,-.3017E-4,0
STARLINK-31737,2024-074D,2025-05-08T09:22:03.265248,15.27568743,.0001936,43.0023,267.6154,285.8957,74.1681,0,U,59537,999,5932,-.32385E-4,-.1153E-4,0
STARLINK-31725,2024-074E,2025-05-08T15:46:14.375712,15.27578595,.0001161,43.0014,255.5173,270.2762,89.7956,0,U,59538,999,5948,.61655E-5,-.92E-6,0
STARLINK-31539,2024-074F,2025-05-08T20:37:47.891712,15.27564540,.000035,42.9989,265.1210,151.9024,208.1846,0,U,59539,999,6047,.10381E-3,.2595E-4,0
STARLINK-31397,2024-074G,2025-05-08T09:59:03.806592,15.27565617,.0000731,42.9988,267.8073,273.6043,86.4725,0,U,59540,999,5932,.82029E-4,.1995E-4,0
STARLINK-31481,2024-074H,2025-05-08T10:15:30.069504,15.27583731,.0000223,42.9916,267.0311,16.1117,343.9742,0,U,59541,999,5933,-.7681E-4,-.2375E-4,0
STARLINK-31540,2024-074J,2025-05-08T16:58:00.974208,15.27596702,.0001544,43.0019,265.6889,249.3241,110.7446,0,U,59542,999,6054,-.54591E-4,-.1765E-4,0
STARLINK-31574,2024-074K,2025-05-08T16:00:53.131104,15.27578567,.0000217,42.9971,266.2539,276.8833,83.1994,0,U,59543,999,5936,.82866E-4,.2019E-4,0
STARLINK-31556,2024-074L,2025-05-08T16:04:34.661568,15.27578808,.0000798,42.9998,266.2779,285.5133,74.5631,0,U,59544,999,6053,.67992E-4,.1609E-4,0
STARLINK-31582,2024-074M,2025-05-08T10:04:36.645312,15.27568580,.0000926,43.0003,267.8328,236.2611,123.8152,0,U,59545,999,5932,.64457E-4,.1512E-4,0
STARLINK-31519,2024-074N,2025-05-08T19:49:40.922112,15.27590732,.000163,43.0040,264.8676,284.0725,75.9945,0,U,59546,999,5939,.31906E-3,.8531E-4,0
STARLINK-31736,2024-074P,2025-05-08T14:19:06.913920,15.35621571,.0002126,43.0008,259.6610,294.2875,65.7758,0,U,59547,999,6050,-.93569E-2,-.317889E-2,0
STARLINK-31675,2024-074Q,2025-05-08T10:46:57.433440,15.27583888,.0001287,43.0024,267.1921,223.2729,136.8021,0,U,59548,999,6050,-.50714E-4,-.1658E-4,0
STARLINK-31722,2024-074R,2025-05-08T10:19:13.378080,15.27563196,.0001441,43.0053,267.0570,291.3079,68.7619,0,U,59549,999,5933,-.13137E-3,-.3873E-4,0
STARLINK-31741,2024-074S,2025-05-09T05:20:09.652416,15.27567648,.0001773,43.0037,262.6784,250.6007,109.4653,0,U,59550,999,6051,-.57588E-3,-.16069E-3,0
STARLINK-31699,2024-074T,2025-05-08T10:50:39.269760,15.27571984,.0002864,43.0043,267.2140,279.6921,80.3607,0,U,59551,999,5933,.58624E-4,.135E-4,0
STARLINK-31750,2024-074U,2025-05-08T11:07:18.124608,15.27583836,.0001654,42.9967,267.3036,269.3512,90.7150,0,U,59552,999,5933,.56292E-4,.1287E-4,0
STARLINK-31723,2024-074V,2025-05-08T11:01:45.684192,15.27579552,.0001432,42.9992,267.2746,241.8276,118.2431,0,U,59553,999,5933,.40656E-3,.10942E-3,0
